STARLINK-2133_new
1 17406C 21005BK  21326.08357196  .00007348  00000-0  49231-3 0  3260
2 17406  53.0536 233.3601 0001967  74.6163  58.6262 15.06392334    19
STARLINK-2133_old
1 27406C 21005BK  21325.15692726  .00008251  00000-0  55296-3 0  3259
2 27406  53.0542 237.5195 0001917  73.1851  72.0723 15.06381677    13
